H1 CPF 01  gfz 2022 06 09 12  6602 tandemx   
H2 1003001  6202 36605    2022 06 09 12 59 42 2022 06 14 00 00 42   120 1 1  0 0 0
H9
10 0 59743  82062.000000  0     613592.951  -4106596.690   5486272.349
10 0 59743  82182.000000  0     280136.032  -3399950.662   5973900.562
10 0 59743  82302.000000  0     -45274.135  -2628173.956   6356479.608
10 0 59743  82422.000000  0    -355935.946  -1804955.369   6627317.915
10 0 59743  82542.000000  0    -645656.581   -944983.811   6781681.987
10 0 59743  82662.000000  0    -908873.636    -63684.536   6816875.341
10 0 59743  82782.000000  0   -1140760.986    823058.458   6732282.975
10 0 59743  82902.000000  0   -1337316.845   1699188.446   6529381.079
10 0 59743  83022.000000  0   -1495432.717   2548766.017   6211712.883
10 0 59743  83142.000000  0   -1612942.890   3356259.327   5784830.639
10 0 59743  83262.000000  0   -1688653.147   4106829.782   5256203.643
10 0 59743  83382.000000  0   -1722348.144   4786608.955   4635094.482
10 0 59743  83502.000000  0   -1714778.080   5382962.181   3932401.956
10 0 59743  83622.000000  0   -1667623.487   5884731.896   3160473.175
10 0 59743  83742.000000  0   -1583440.768   6282455.466   2332887.590
10 0 59743  83862.000000  0   -1465587.960   6568553.247   1464215.973
10 0 59743  83982.000000  0   -1318131.318   6737480.914    569758.585
10 0 59743  84102.000000  0   -1145736.567   6785841.710   -334730.919
10 0 59743  84222.000000  0    -953547.528   6712457.902  -1233331.741
10 0 59743  84342.000000  0    -747053.877   6518395.022  -2110247.727
10 0 59743  84462.000000  0    -531953.519   6206938.042  -2950092.795
10 0 59743  84582.000000  0    -314013.105   5783525.024  -3738164.035
10 0 59743  84702.000000  0     -98929.182   5255640.955  -4460699.660
10 0 59743  84822.000000  0     107806.399   4632673.116  -5105116.963
10 0 59743  84942.000000  0     301033.935   3925732.712  -5660225.448
10 0 59743  85062.000000  0     476043.192   3147446.619  -6116412.757
10 0 59743  85182.000000  0     628677.576   2311724.252  -6465800.054
10 0 59743  85302.000000  0     755423.915   1433506.129  -6702366.151
10 0 59743  85422.000000  0     853486.526    528498.057  -6822041.133
10 0 59743  85542.000000  0     920844.060   -387105.750  -6822768.946
10 0 59743  85662.000000  0     956288.637  -1296906.885  -6704538.196
10 0 59743  85782.000000  0     959446.643  -2184588.397  -6469380.565
10 0 59743  85902.000000  0     930781.763  -3034198.842  -6121340.698
10 0 59743  86022.000000  0     871579.451  -3830435.262  -5666416.411
10 0 59743  86142.000000  0     783912.375  -4558918.270  -5112464.434
10 0 59743  86262.000000  0     670589.063  -5206453.181  -4469075.926
10 0 59743  86382.000000  0     535084.872  -5761275.459  -3747422.077
99
